ONEWEB-0159             
1 48062U 21025W   25074.44950856  .00002256  00000+0  61420-2 0  9998
2 48062  87.8917  51.3770 0001598  83.2986 276.8325 13.13458637193382
ONEWEB-0164             
1 48063U 21025X   25073.89762350 -.00000078  00000+0 -24903-3 0  9995
2 48063  87.8916  51.4973 0002002  82.1456 277.9900 13.13469803193297
ONEWEB-0167             
1 48064U 21025Y   25073.92550219 -.00007057  00000+0 -19367-1 0  9999
2 48064  87.8927  51.5110 0002049  60.8454 299.2880 13.13492428193288
ONEWEB-0166             
1 48065U 21025Z   25073.94839964 -.00000175  00000+0 -51417-3 0  9997
2 48065  87.8915  51.4755 0001706  87.9336 272.1988 13.13468995193368
ONEWEB-0151             
1 48066U 21025AA  25073.95008413 -.00000173  00000+0 -50750-3 0  9993
2 48066  87.8917  51.4951 0001976  80.4493 279.6860 13.13469494193300
ONEWEB-0170             
1 48067U 21025AB  25073.95854213 -.00000002  00000+0 -40720-4 0  9999
2 48067  87.8919  51.4980 0002466  81.7020 278.4388 13.13467876193269
ONEWEB-0168             
1 48068U 21025AC  25073.94332228 -.00000047  00000+0 -16470-3 0  9999
2 48068  87.8923  51.4784 0001874  83.0983 277.0359 13.13470877193271
ONEWEB-0173             
1 48069U 21025AD  25074.01103682 -.00000137  00000+0 -40901-3 0  9995
2 48069  87.8921  51.4736 0001776  70.0887 290.0433 13.13469456193524
